JILIN GAOFEN OBJECT C
1 68693U 26080C   26104.67655630  .00000826  00000+0  55879-4 0  9992
2 68693  97.6620 180.3181 0013898 278.5624  81.4029 15.09291406    88
