{
  "norad_id": 68693,
  "name": "JILIN GAOFEN OBJECT C",
  "history": [
    {
      "epoch": "2026-04-14T16:14:14.464320Z",
      "apogee_km": 547.976518352355,
      "perigee_km": 528.7514122691764,
      "latitude_deg": -5.543055666354721e-05,
      "longitude_deg": 93.90828245997497,
      "height_km": 540.0081403041515,
      "semi_major_axis_km": 6916.500965310765,
      "eccentricity": 0.0013898,
      "inclination_deg": 97.662,
      "raan_deg": 180.3181,
      "arg_perigee_deg": 278.5624,
      "mean_anomaly_deg": 81.4029,
      "mean_motion_rev_day": 15.09291406
    }
  ]
}